$$SOE
2459580.500000000, A.D. 2022-Jan-01 00:00:00.0000, -4.723784565312809E+08, -2.042517285475154E+07, 2.148271402973392E+07,
2459587.500000000, A.D. 2022-Jan-08 00:00:00.0000, -4.730168396566972E+08, -3.012733820521617E+07, 2.320910566157264E+07,
2459594.500000000, A.D. 2022-Jan-15 00:00:00.0000, -4.734403973887250E+08, -3.981581626733341E+07, 2.492495584681823E+07,
2459601.500000000, A.D. 2022-Jan-22 00:00:00.0000, -4.736505856743047E+08, -4.948634582354731E+07, 2.662957169018382E+07,
2459608.500000000, A.D. 2022-Jan-29 00:00:00.0000, -4.736489224494793E+08, -5.913473510369271E+07, 2.832227539118103E+07,
2459615.500000000, A.D. 2022-Feb-05 00:00:00.0000, -4.734369871505175E+08, -6.875686196951491E+07, 3.000240420333220E+07,
2459622.500000000, A.D. 2022-Feb-12 00:00:00.0000, -4.730164181589465E+08, -7.834867510936160E+07, 3.166931010223405E+07,
2459629.500000000, A.D. 2022-Feb-19 00:00:00.0000, -4.723889095025163E+08, -8.790619387817898E+07, 3.332235947853826E+07,
2459636.500000000, A.D. 2022-Feb-26 00:00:00.0000, -4.715562081201351E+08, -9.742550751075453E+07, 3.496093291765346E+07,
2459643.500000000, A.D. 2022-Mar-05 00:00:00.0000, -4.705201115289307E+08, -1.069027743300347E+08, 3.658442500158774E+07,
2459650.500000000, A.D. 2022-Mar-12 00:00:00.0000, -4.692824656688557E+08, -1.163342210206945E+08, 3.819224410757069E+07,
2459657.500000000, A.D. 2022-Mar-19 00:00:00.0000, -4.678451628507199E+08, -1.257161419445154E+08, 3.978381219948375E+07,
2459664.500000000, A.D. 2022-Mar-26 00:00:00.0000, -4.662101397827708E+08, -1.350448985083777E+08, 4.135856460980123E+07,
2459671.500000000, A.D. 2022-Apr-02 00:00:00.0000, -4.643793756064680E+08, -1.443169186452045E+08, 4.291594980157603E+07,
2459678.500000000, A.D. 2022-Apr-09 00:00:00.0000, -4.623548896681521E+08, -1.535286964066305E+08, 4.445542908629781E+07,
2459685.500000000, A.D. 2022-Apr-16 00:00:00.0000, -4.601387386676701E+08, -1.626767910161235E+08, 4.597647631868074E+07,
2459692.500000000, A.D. 2022-Apr-23 00:00:00.0000, -4.577330144500903E+08, -1.717578243009425E+08, 4.747857777364348E+07,
2459699.500000000, A.D. 2022-Apr-30 00:00:00.0000, -4.551398443080140E+08, -1.807684787515642E+08, 4.896123219379940E+07,
2459706.500000000, A.D. 2022-May-07 00:00:00.0000, -4.523613907304536E+08, -1.897054981856512E+08, 5.042395056574687E+07,
2459713.500000000, A.D. 2022-May-14 00:00:00.0000, -4.493998492073401E+08, -1.985656879805600E+08, 5.186625574658802E+07,
2459720.500000000, A.D. 2022-May-21 00:00:00.0000, -4.462574461177331E+08, -2.073459141173697E+08, 5.328768218933783E+07,
2459727.500000000, A.D. 2022-May-28 00:00:00.0000, -4.429364371775627E+08, -2.160431019975860E+08, 5.468777573301856E+07,
2459734.500000000, A.D. 2022-Jun-04 00:00:00.0000, -4.394391061677399E+08, -2.246542353479345E+08, 5.606609340677768E+07,
2459741.500000000, A.D. 2022-Jun-11 00:00:00.0000, -4.357677637963268E+08, -2.331763552131007E+08, 5.742220323534844E+07,
2459748.500000000, A.D. 2022-Jun-18 00:00:00.0000, -4.319247466542168E+08, -2.416065590246094E+08, 5.875568404377628E+07,
2459755.500000000, A.D. 2022-Jun-25 00:00:00.0000, -4.279124162327291E+08, -2.499419997802548E+08, 6.006612525632408E+07,
2459762.500000000, A.D. 2022-Jul-02 00:00:00.0000, -4.237331578668180E+08, -2.581798854010052E+08, 6.135312667217797E+07,
2459769.500000000, A.D. 2022-Jul-09 00:00:00.0000, -4.193893792113789E+08, -2.663174780895211E+08, 6.261629819690112E+07,
2459776.500000000, A.D. 2022-Jul-16 00:00:00.0000, -4.148835083034613E+08, -2.743520926084455E+08, 6.385525962342859E+07,
2459783.500000000, A.D. 2022-Jul-23 00:00:00.0000, -4.102179934061593E+08, -2.822810934018310E+08, 6.506964067077527E+07,
2459790.500000000, A.D. 2022-Jul-30 00:00:00.0000, -4.053953045480348E+08, -2.901018939154474E+08, 6.625908099894942E+07,
2459797.500000000, A.D. 2022-Aug-06 00:00:00.0000, -4.004179331583892E+08, -2.978119574696381E+08, 6.742322992351370E+07,
2459804.500000000, A.D. 2022-Aug-13 00:00:00.0000, -3.952883906202837E+08, -3.054087969308575E+08, 6.856174613090518E+07,
2459811.500000000, A.D. 2022-Aug-20 00:00:00.0000, -3.900092073083633E+08, -3.128899736854877E+08, 6.967429749754272E+07,
2459818.500000000, A.D. 2022-Aug-27 00:00:00.0000, -3.845829320409333E+08, -3.202530966433059E+08, 7.076056094721551E+07,
2459825.500000000, A.D. 2022-Sep-03 00:00:00.0000, -3.790121316965076E+08, -3.274958213824403E+08, 7.182022231518227E+07,
2459832.500000000, A.D. 2022-Sep-10 00:00:00.0000, -3.732993909033837E+08, -3.346158494131553E+08, 7.285297621296030E+07,
2459839.500000000, A.D. 2022-Sep-17 00:00:00.0000, -3.674473117716228E+08, -3.416109275631617E+08, 7.385852589120123E+07,
2459846.500000000, A.D. 2022-Sep-24 00:00:00.0000, -3.614585136057304E+08, -3.484788475361068E+08, 7.483658309108430E+07,
2459853.500000000, A.D. 2022-Oct-01 00:00:00.0000, -3.553356323567824E+08, -3.552174456662669E+08, 7.578686786042303E+07,
2459860.500000000, A.D. 2022-Oct-08 00:00:00.0000, -3.490813194054979E+08, -3.618246023479718E+08, 7.670910833974627E+07,
2459867.500000000, A.D. 2022-Oct-15 00:00:00.0000, -3.426982406067826E+08, -3.682982399408369E+08, 7.760304070164905E+07,
2459874.500000000, A.D. 2022-Oct-22 00:00:00.0000, -3.361890777757800E+08, -3.746363208348801E+08, 7.846840930558747E+07,
2459881.500000000, A.D. 2022-Oct-29 00:00:00.0000, -3.295565301164755E+08, -3.808368482696861E+08, 7.930496662684463E+07,
2459888.500000000, A.D. 2022-Nov-05 00:00:00.0000, -3.228033134929265E+08, -3.868978671667004E+08, 8.011247299099350E+07,
2459895.500000000, A.D. 2022-Nov-12 00:00:00.0000, -3.159321595065251E+08, -3.928174637065701E+08, 8.089069639721113E+07,
2459902.500000000, A.D. 2022-Nov-19 00:00:00.0000, -3.089458150962224E+08, -3.985937646049360E+08, 8.163941241777967E+07,
2459909.500000000, A.D. 2022-Nov-26 00:00:00.0000, -3.018470423969479E+08, -4.042249364844680E+08, 8.235840411672954E+07,
2459916.500000000, A.D. 2022-Dec-03 00:00:00.0000, -2.946386186884564E+08, -4.097091853562357E+08, 8.304746197136874E+07,
2459923.500000000, A.D. 2022-Dec-10 00:00:00.0000, -2.873233363884182E+08, -4.150447561935458E+08, 8.370638379437867E+07,
2459930.500000000, A.D. 2022-Dec-17 00:00:00.0000, -2.799040030650074E+08, -4.202299326245235E+08, 8.433497465263012E+07,
2459937.500000000, A.D. 2022-Dec-24 00:00:00.0000, -2.723834413595532E+08, -4.252630368098264E+08, 8.493304676766551E+07,
2459944.500000000, A.D. 2022-Dec-31 00:00:00.0000, -2.647644884612367E+08, -4.301424293980667E+08, 8.550041937402400E+07,
2459951.500000000, A.D. 2023-Jan-07 00:00:00.0000, -2.570499950103800E+08, -4.348665085963318E+08, 8.603691860284336E+07,
2459958.500000000, A.D. 2023-Jan-14 00:00:00.0000, -2.492428253961310E+08, -4.394337078585121E+08, 8.654237761162588E+07,
2459965.500000000, A.D. 2023-Jan-21 00:00:00.0000, -2.413458600916354E+08, -4.438424953639952E+08, 8.701663675984553E+07,
2459972.500000000, A.D. 2023-Jan-28 00:00:00.0000, -2.333619963575343E+08, -4.480913754831917E+08, 8.745954347812445E+07,
2459979.500000000, A.D. 2023-Feb-04 00:00:00.0000, -2.252941475218629E+08, -4.521788892029836E+08, 8.787095209787507E+07,
2459986.500000000, A.D. 2023-Feb-11 00:00:00.0000, -2.171452426309421E+08, -4.561036137056845E+08, 8.825072379041608E+07,
2459993.500000000, A.D. 2023-Feb-18 00:00:00.0000, -2.089182265334899E+08, -4.598641619243829E+08, 8.859872655409540E+07,
2460000.500000000, A.D. 2023-Feb-25 00:00:00.0000, -2.006160601338746E+08, -4.634591822363032E+08, 8.891483521208052E+07,
2460007.500000000, A.D. 2023-Mar-04 00:00:00.0000, -1.922417207109761E+08, -4.668873582755331E+08, 8.919893141306247E+07,
2460014.500000000, A.D. 2023-Mar-11 00:00:00.0000, -1.837982022728520E+08, -4.701474088650513E+08, 8.945090363254309E+07,
2460021.500000000, A.D. 2023-Mar-18 00:00:00.0000, -1.752885158991876E+08, -4.732380881180055E+08, 8.967064716670509E+07,
2460028.500000000, A.D. 2023-Mar-25 00:00:00.0000, -1.667156898673724E+08, -4.761581857558237E+08, 8.985806409673758E+07,
2460035.500000000, A.D. 2023-Apr-01 00:00:00.0000, -1.580827691368725E+08, -4.789065272500302E+08, 9.001306321716885E+07,
2460042.500000000, A.D. 2023-Apr-08 00:00:00.0000, -1.493928148064699E+08, -4.814819725628201E+08, 9.013556008499660E+07,
2460049.500000000, A.D. 2023-Apr-15 00:00:00.0000, -1.406489058802392E+08, -4.838834145922663E+08, 9.022547731359157E+07,
2460056.500000000, A.D. 2023-Apr-22 00:00:00.0000, -1.318541415315563E+08, -4.861097803743660E+08, 9.028274469602756E+07,
2460063.500000000, A.D. 2023-Apr-29 00:00:00.0000, -1.230116411290418E+08, -4.881600327903248E+08, 9.030729909139486E+07,
2460070.500000000, A.D. 2023-May-06 00:00:00.0000, -1.141245437841609E+08, -4.900331709989386E+08, 9.029908438142359E+07,
2460077.500000000, A.D. 2023-May-13 00:00:00.0000, -1.051960083967007E+08, -4.917282304879943E+08, 9.025805151403128E+07,
2460084.500000000, A.D. 2023-May-20 00:00:00.0000, -9.622921396323824E+07, -4.932442832359523E+08, 9.018415857201323E+07,
2460091.500000000, A.D. 2023-May-27 00:00:00.0000, -8.722735995419064E+07, -4.945804380135261E+08, 9.007737084642458E+07,
2460098.500000000, A.D. 2023-Jun-03 00:00:00.0000, -7.819366670076868E+07, -4.957358407995260E+08, 8.993766091117109E+07,
2460105.500000000, A.D. 2023-Jun-10 00:00:00.0000, -6.913137576693383E+07, -4.967096753253610E+08, 8.976500869526592E+07,
2460112.500000000, A.D. 2023-Jun-17 00:00:00.0000, -6.004375021635384E+07, -4.975011638091114E+08, 8.955940153956126E+07,
2460119.500000000, A.D. 2023-Jun-24 00:00:00.0000, -5.093407445359267E+07, -4.981095678243033E+08, 8.932083421307936E+07,
2460126.500000000, A.D. 2023-Jul-01 00:00:00.0000, -4.180565338578184E+07, -4.985341884757659E+08, 8.904930893329747E+07,
2460133.500000000, A.D. 2023-Jul-08 00:00:00.0000, -3.266181257811557E+07, -4.987743650602926E+08, 8.874483561079270E+07,
2460140.500000000, A.D. 2023-Jul-15 00:00:00.0000, -2.350590067861962E+07, -4.988294750409656E+08, 8.840743220348568E+07,
$$EOE